start=new Date('2023-05-14T00:00:00.000Z').valueOf();
sats=[{"MEAN_ELEMENT_THEORY":"SGP4","INCLINATION":"70.0009","GP_ID":"231778449","APOAPSIS":"574.014","EPHEMERIS_TYPE":"0","PERIAPSIS":"570.135","ARG_OF_PERICENTER":"270.0660","NORAD_CAT_ID":"49134","TIME_SYSTEM":"UTC","TLE_LINE1":"1 49134U 21082E   23133.87743846  .00000447  00000-0  45264-4 0  9993","OBJECT_NAME":"STARLINK-3078","CENTER_NAME":"EARTH","PERIOD":"96.107","RCS_SIZE":"LARGE","FILE":"3907148","ECCENTRICITY":"0.00027910","REF_FRAME":"TEME","MEAN_ANOMALY":"90.0179","SITE":"AFWTR","MEAN_MOTION_DDOT":"0.0000000000000","RA_OF_ASC_NODE":"13.5052","REV_AT_EPOCH":"9277","LAUNCH_DATE":"2021-09-14","ELEMENT_SET_NO":"999","MEAN_MOTION_DOT":"0.00000447","SEMIMAJOR_AXIS":"6950.209","CLASSIFICATION_TYPE":"U","TLE_LINE2":"2 49134  70.0009  13.5052 0002791 270.0660  90.0179 14.98324654 92772","MEAN_MOTION":"14.98324654","EPOCH":"2023-05-13T21:03:30.682944","DECAY_DATE":null,"COUNTRY_CODE":"US","OBJECT_ID":"2021-082E","BSTAR":"0.00004526400000","OBJECT_TYPE":"PAYLOAD"},{"EPOCH":"2023-05-13T20:20:46.693824","MEAN_MOTION":"14.98328900","DECAY_DATE":null,"COUNTRY_CODE":"US","BSTAR":"0.00004559400000","OBJECT_TYPE":"PAYLOAD","OBJECT_ID":"2021-082F","ELEMENT_SET_NO":"999","LAUNCH_DATE":"2021-09-14","REV_AT_EPOCH":"9256","SEMIMAJOR_AXIS":"6950.196","MEAN_MOTION_DOT":"0.00000451","CLASSIFICATION_TYPE":"U","TLE_LINE2":"2 49135  70.0003 333.5590 0002961 262.2357  97.8466 14.98328900 92563","TIME_SYSTEM":"UTC","NORAD_CAT_ID":"49135","OBJECT_NAME":"STARLINK-3073","TLE_LINE1":"1 49135U 21082F   23133.84776266  .00000451  00000-0  45594-4 0  9994","RCS_SIZE":"LARGE","FILE":"3907148","ECCENTRICITY":"0.00029610","CENTER_NAME":"EARTH","PERIOD":"96.107","SITE":"AFWTR","RA_OF_ASC_NODE":"333.5590","MEAN_MOTION_DDOT":"0.0000000000000","REF_FRAME":"TEME","MEAN_ANOMALY":"97.8466","MEAN_ELEMENT_THEORY":"SGP4","INCLINATION":"70.0003","GP_ID":"231778685","APOAPSIS":"574.119","PERIAPSIS":"570.003","EPHEMERIS_TYPE":"0","ARG_OF_PERICENTER":"262.2357"},{"PERIOD":"96.107","CENTER_NAME":"EARTH","ECCENTRICITY":"0.00033960","FILE":"3907148","RCS_SIZE":"LARGE","REF_FRAME":"TEME","MEAN_ANOMALY":"96.5996","SITE":"AFWTR","MEAN_MOTION_DDOT":"0.0000000000000","RA_OF_ASC_NODE":"353.5842","NORAD_CAT_ID":"49136","TIME_SYSTEM":"UTC","TLE_LINE1":"1 49136U 21082G   23133.84382884  .00001537  00000-0  13656-3 0  9993","OBJECT_NAME":"STARLINK-3084","PERIAPSIS":"569.697","EPHEMERIS_TYPE":"0","ARG_OF_PERICENTER":"263.4776","MEAN_ELEMENT_THEORY":"SGP4","APOAPSIS":"574.418","INCLINATION":"69.9994","GP_ID":"231777947","COUNTRY_CODE":"US","OBJECT_ID":"2021-082G","BSTAR":"0.00013656000000","OBJECT_TYPE":"PAYLOAD","MEAN_MOTION":"14.98330091","EPOCH":"2023-05-13T20:15:06.811776","DECAY_DATE":null,"TLE_LINE2":"2 49136  69.9994 353.5842 0003396 263.4776  96.5996 14.98330091 92077","CLASSIFICATION_TYPE":"U","REV_AT_EPOCH":"9207","LAUNCH_DATE":"2021-09-14","ELEMENT_SET_NO":"999","MEAN_MOTION_DOT":"0.00001537","SEMIMAJOR_AXIS":"6950.193"},{"EPHEMERIS_TYPE":"0","PERIAPSIS":"570.071","ARG_OF_PERICENTER":"256.2304","MEAN_ELEMENT_THEORY":"SGP4","APOAPSIS":"574.068","GP_ID":"231778190","INCLINATION":"70.0010","CENTER_NAME":"EARTH","PERIOD":"96.107","ECCENTRICITY":"0.00028750","FILE":"3907148","RCS_SIZE":"LARGE","MEAN_ANOMALY":"103.8535","REF_FRAME":"TEME","SITE":"AFWTR","MEAN_MOTION_DDOT":"0.0000000000000","RA_OF_ASC_NODE":"353.4290","NORAD_CAT_ID":"49137","TIME_SYSTEM":"UTC","TLE_LINE1":"1 49137U 21082H   23133.90641157  .00000585  00000-0  56832-4 0  9998","OBJECT_NAME":"STARLINK-3055","TLE_LINE2":"2 49137  70.0010 353.4290 0002875 256.2304 103.8535 14.98326242 92078","CLASSIFICATION_TYPE":"U","LAUNCH_DATE":"2021-09-14","REV_AT_EPOCH":"9207","ELEMENT_SET_NO":"999","MEAN_MOTION_DOT":"0.00000585","SEMIMAJOR_AXIS":"6950.205","COUNTRY_CODE":"US","OBJECT_ID":"2021-082H","OBJECT_TYPE":"PAYLOAD","BSTAR":"0.00005683200000","MEAN_MOTION":"14.98326242","EPOCH":"2023-05-13T21:45:13.959648","DECAY_DATE":null},{"TLE_LINE1":"1 49138U 21082J   23133.87326241  .00000612  00000-0  59090-4 0  9999","OBJECT_NAME":"STARLINK-3058","NORAD_CAT_ID":"49138","TIME_SYSTEM":"UTC","MEAN_ANOMALY":"90.5204","REF_FRAME":"TEME","MEAN_MOTION_DDOT":"0.0000000000000","SITE":"AFWTR","RA_OF_ASC_NODE":"13.5192","CENTER_NAME":"EARTH","PERIOD":"96.107","FILE":"3907148","RCS_SIZE":"LARGE","ECCENTRICITY":"0.00028990","INCLINATION":"70.0007","GP_ID":"231778950","APOAPSIS":"574.087","MEAN_ELEMENT_THEORY":"SGP4","ARG_OF_PERICENTER":"269.5623","EPHEMERIS_TYPE":"0","PERIAPSIS":"570.057","DECAY_DATE":null,"MEAN_MOTION":"14.98325388","EPOCH":"2023-05-13T20:57:29.872224","OBJECT_ID":"2021-082J","BSTAR":"0.00005909000000","OBJECT_TYPE":"PAYLOAD","COUNTRY_CODE":"US","MEAN_MOTION_DOT":"0.00000612","SEMIMAJOR_AXIS":"6950.207","LAUNCH_DATE":"2021-09-14","ELEMENT_SET_NO":"999","REV_AT_EPOCH":"9157","CLASSIFICATION_TYPE":"U","TLE_LINE2":"2 49138  70.0007  13.5192 0002899 269.5623  90.5204 14.98325388 91576"},{"EPHEMERIS_TYPE":"0","PERIAPSIS":"569.920","ARG_OF_PERICENTER":"271.7247","MEAN_ELEMENT_THEORY":"SGP4","INCLINATION":"69.9996","GP_ID":"231779186","APOAPSIS":"574.199","CENTER_NAME":"EARTH","PERIOD":"96.107","RCS_SIZE":"LARGE","FILE":"3907148","ECCENTRICITY":"0.00030780","REF_FRAME":"TEME","MEAN_ANOMALY":"88.3559","SITE":"AFWTR","RA_OF_ASC_NODE":"333.5851","MEAN_MOTION_DDOT":"0.0000000000000","NORAD_CAT_ID":"49139","TIME_SYSTEM":"UTC","TLE_LINE1":"1 49139U 21082K   23133.83941626  .00001265  00000-0  11381-3 0  9991","OBJECT_NAME":"STARLINK-3057","CLASSIFICATION_TYPE":"U","TLE_LINE2":"2 49139  69.9996 333.5851 0003078 271.7247  88.3559 14.98329426 92559","LAUNCH_DATE":"2021-09-14","ELEMENT_SET_NO":"999","REV_AT_EPOCH":"9255","MEAN_MOTION_DOT":"0.00001265","SEMIMAJOR_AXIS":"6950.195","COUNTRY_CODE":"US","OBJECT_ID":"2021-082K","BSTAR":"0.00011381000000","OBJECT_TYPE":"PAYLOAD","MEAN_MOTION":"14.98329426","EPOCH":"2023-05-13T20:08:45.564864","DECAY_DATE":null},{"DECAY_DATE":null,"MEAN_MOTION":"14.98332444","EPOCH":"2023-05-13T21:32:52.587168","OBJECT_ID":"2021-082L","BSTAR":"0.00006336800000","OBJECT_TYPE":"PAYLOAD","COUNTRY_CODE":"US","MEAN_MOTION_DOT":"0.00000663","SEMIMAJOR_AXIS":"6950.185","LAUNCH_DATE":"2021-09-14","ELEMENT_SET_NO":"999","REV_AT_EPOCH":"9256","TLE_LINE2":"2 49140  69.9992 333.4470 0003077 269.8007  90.2799 14.98332444 92567","CLASSIFICATION_TYPE":"U","TLE_LINE1":"1 49140U 21082L   23133.89783087  .00000663  00000-0  63368-4 0  9998","OBJECT_NAME":"STARLINK-3118","NORAD_CAT_ID":"49140","TIME_SYSTEM":"UTC","REF_FRAME":"TEME","MEAN_ANOMALY":"90.2799","MEAN_MOTION_DDOT":"0.0000000000000","SITE":"AFWTR","RA_OF_ASC_NODE":"333.4470","PERIOD":"96.107","CENTER_NAME":"EARTH","ECCENTRICITY":"0.00030770","RCS_SIZE":"LARGE","FILE":"3907148","APOAPSIS":"574.189","INCLINATION":"69.9992","GP_ID":"231777447","MEAN_ELEMENT_THEORY":"SGP4","ARG_OF_PERICENTER":"269.8007","PERIAPSIS":"569.912","EPHEMERIS_TYPE":"0"},{"ECCENTRICITY":"0.00027250","FILE":"3907148","RCS_SIZE":"LARGE","PERIOD":"96.107","CENTER_NAME":"EARTH","RA_OF_ASC_NODE":"13.5358","SITE":"AFWTR","MEAN_MOTION_DDOT":"0.0000000000000","REF_FRAME":"TEME","MEAN_ANOMALY":"103.8721","TIME_SYSTEM":"UTC","NORAD_CAT_ID":"49141","OBJECT_NAME":"STARLINK-3093","TLE_LINE1":"1 49141U 21082M   23133.86908783  .00001862  00000-0  16385-3 0  9996","EPHEMERIS_TYPE":"0","PERIAPSIS":"570.181","ARG_OF_PERICENTER":"256.2135","MEAN_ELEMENT_THEORY":"SGP4","APOAPSIS":"573.969","INCLINATION":"70.0023","GP_ID":"231777690","COUNTRY_CODE":"US","BSTAR":"0.00016385000000","OBJECT_TYPE":"PAYLOAD","OBJECT_ID":"2021-082M","EPOCH":"2023-05-13T20:51:29.188512","MEAN_MOTION":"14.98324466","DECAY_DATE":null,"TLE_LINE2":"2 49141  70.0023  13.5358 0002725 256.2135 103.8721 14.98324466 92772","CLASSIFICATION_TYPE":"U","LAUNCH_DATE":"2021-09-14","ELEMENT_SET_NO":"999","REV_AT_EPOCH":"9277","SEMIMAJOR_AXIS":"6950.210","MEAN_MOTION_DOT":"0.00001862"},{"COUNTRY_CODE":"US","OBJECT_ID":"2021-082N","OBJECT_TYPE":"PAYLOAD","BSTAR":"0.00003378200000","MEAN_MOTION":"14.98331828","EPOCH":"2023-05-13T21:26:52.147968","DECAY_DATE":null,"TLE_LINE2":"2 49142  69.9998 333.4596 0003203 270.2671  89.8121 14.98331828 92566","CLASSIFICATION_TYPE":"U","LAUNCH_DATE":"2021-09-14","REV_AT_EPOCH":"9256","ELEMENT_SET_NO":"999","MEAN_MOTION_DOT":"0.00000310","SEMIMAJOR_AXIS":"6950.187","PERIOD":"96.107","CENTER_NAME":"EARTH","ECCENTRICITY":"0.00032030","RCS_SIZE":"LARGE","FILE":"3907148","REF_FRAME":"TEME","MEAN_ANOMALY":"89.8121","SITE":"AFWTR","MEAN_MOTION_DDOT":"0.0000000000000","RA_OF_ASC_NODE":"333.4596","NORAD_CAT_ID":"49142","TIME_SYSTEM":"UTC","TLE_LINE1":"1 49142U 21082N   23133.89365912  .00000310  00000-0  33782-4 0  9999","OBJECT_NAME":"STARLINK-3042","PERIAPSIS":"569.826","EPHEMERIS_TYPE":"0","ARG_OF_PERICENTER":"270.2671","MEAN_ELEMENT_THEORY":"SGP4","APOAPSIS":"574.278","INCLINATION":"69.9998","GP_ID":"231778450"},{"ARG_OF_PERICENTER":"266.5140","EPHEMERIS_TYPE":"0","PERIAPSIS":"569.972","APOAPSIS":"574.149","INCLINATION":"69.9994","GP_ID":"231778686","MEAN_ELEMENT_THEORY":"SGP4","REF_FRAME":"TEME","MEAN_ANOMALY":"93.5675","RA_OF_ASC_NODE":"353.4439","SITE":"AFWTR","MEAN_MOTION_DDOT":"0.0000000000000","PERIOD":"96.107","CENTER_NAME":"EARTH","ECCENTRICITY":"0.00030050","RCS_SIZE":"LARGE","FILE":"3907148","TLE_LINE1":"1 49143U 21082P   23133.90223690  .00000780  00000-0  73188-4 0  9993","OBJECT_NAME":"STARLINK-3109","NORAD_CAT_ID":"49143","TIME_SYSTEM":"UTC","TLE_LINE2":"2 49143  69.9994 353.4439 0003005 266.5140  93.5675 14.98329111 93187","CLASSIFICATION_TYPE":"U","MEAN_MOTION_DOT":"0.00000780","SEMIMAJOR_AXIS":"6950.196","ELEMENT_SET_NO":"999","LAUNCH_DATE":"2021-09-14","REV_AT_EPOCH":"9318","OBJECT_ID":"2021-082P","OBJECT_TYPE":"PAYLOAD","BSTAR":"0.00007318800000","COUNTRY_CODE":"US","DECAY_DATE":null,"MEAN_MOTION":"14.98329111","EPOCH":"2023-05-13T21:39:13.268160"}];
